NORAD_CAT_ID,OBJECT_NAME,OBJECT_TYPE,EPOCH,MEAN_MOTION,ECCENTRICITY,INCLINATION,RA_OF_ASC_NODE,ARG_OF_PERICENTER,MEAN_ANOMALY,BSTAR,MEAN_MOTION_DOT,MEAN_MOTION_DDOT,TLE_LINE0,TLE_LINE1,TLE_LINE2,SEMIMAJOR_AXIS,PERIOD,APOGEE,PERIGEE,DECAYED
49750.0,STARLINK-3236,PAYLOAD,2023-03-29 20:33:09,15.08853807,0.0001177,53.2161,298.733,82.8624,277.2502,0.0010568,0.00016577,0.0,0 STARLINK-3236,1 49750U 21115AC  23088.85636009  .00016577  00000-0  10568-2 0  9991,2 49750  53.2161 298.7330 0001177  82.8624 277.2502 15.08853807 74239,6917.838,95.437,540.517,538.889,0.0
49750.0,STARLINK-3236,PAYLOAD,2023-03-30 20:23:56,15.08848568,8.2e-05,53.2157,294.2725,76.6662,283.4422,0.0012873,0.00020264,0.0,0 STARLINK-3236,1 49750U 21115AC  23089.84996273  .00020264  00000-0  12873-2 0  9992,2 49750  53.2157 294.2725 0000820  76.6662 283.4422 15.08848568 74384,6917.854,95.437,540.286,539.152,0.0
49750.0,STARLINK-3236,PAYLOAD,2023-03-31 20:14:43,15.08851849,6.68e-05,53.2157,289.8106,68.6011,291.5052,0.00095017,0.00014871,0.0,0 STARLINK-3236,1 49750U 21115AC  23090.84356105  .00014871  00000-0  95017-3 0  9997,2 49750  53.2157 289.8106 0000668  68.6011 291.5052 15.08851849 74538,6917.844,95.437,540.171,539.247,0.0
49750.0,STARLINK-3236,PAYLOAD,2023-03-31 23:25:29,15.08854238,8.45e-05,53.2161,289.2154,80.6416,279.4671,0.0009971,0.00015623,0.0,0 STARLINK-3236,1 49750U 21115AC  23090.97604021  .00015623  00000-0  99710-3 0  9994,2 49750  53.2161 289.2154 0000845  80.6416 279.4671 15.08854238 73446,6917.837,95.437,540.286,539.117,0.0
49750.0,STARLINK-3236,PAYLOAD,2023-04-01 20:05:31,15.0883395,8.91e-05,53.216,285.3513,70.7179,289.3909,0.00019863,2.874e-05,0.0,0 STARLINK-3236,1 49750U 21115AC  23091.83716666  .00002874  00000-0  19863-3 0  9994,2 49750  53.2160 285.3513 0000891  70.7179 289.3909 15.08833950 74687,6917.899,95.438,540.38,539.147,0.0
49750.0,STARLINK-3236,PAYLOAD,2023-04-02 13:34:45,15.08844426,8.89e-05,53.216,282.081,69.8516,290.2572,0.00067616,0.00010491,0.0,0 STARLINK-3236,1 49750U 21115AC  23092.56580983  .00010491  00000-0  67616-3 0  9999,2 49750  53.2160 282.0810 0000889  69.8516 290.2572 15.08844426 73688,6917.867,95.437,540.347,539.117,0.0
49750.0,STARLINK-3236,PAYLOAD,2023-04-02 19:56:18,15.08851888,9.02e-05,53.2162,280.8917,72.1017,288.0074,0.00068462,0.00010628,0.0,0 STARLINK-3236,1 49750U 21115AC  23092.83076701  .00010628  00000-0  68462-3 0  9999,2 49750  53.2162 280.8917 0000902  72.1017 288.0074 15.08851888 73720,6917.844,95.437,540.333,539.085,0.0
49750.0,STARLINK-3236,PAYLOAD,2023-04-03 11:50:09,15.08844526,0.0001323,53.215,277.9186,65.2917,294.8212,0.00023811,3.504e-05,0.0,0 STARLINK-3236,1 49750U 21115AC  23093.49316936  .00003504  00000-0  23811-3 0  9993,2 49750  53.2150 277.9186 0001323  65.2917 294.8212 15.08844526 74936,6917.867,95.437,540.647,538.816,0.0
49750.0,STARLINK-3236,PAYLOAD,2023-04-04 11:40:56,15.08841738,0.0001091,53.2145,273.4578,74.2902,285.8211,0.00010962,1.457e-05,0.0,0 STARLINK-3236,1 49750U 21115AC  23094.48676959  .00001457  00000-0  10962-3 0  9995,2 49750  53.2145 273.4578 0001091  74.2902 285.8211 15.08841738 75080,6917.875,95.437,540.495,538.985,0.0
49750.0,STARLINK-3236,PAYLOAD,2023-04-05 11:31:44,15.08840843,0.0001163,53.2161,268.9976,69.4086,290.703,0.00013166,1.808e-05,0.0,0 STARLINK-3236,1 49750U 21115AC  23095.48037216  .00001808  00000-0  13166-3 0  9992,2 49750  53.2161 268.9976 0001163  69.4086 290.7030 15.08840843 74122,6917.878,95.438,540.547,538.938,0.0
49750.0,STARLINK-3236,PAYLOAD,2023-04-05 17:53:16,15.0884102,8.59e-05,53.2142,267.8059,76.7227,283.3861,0.00013195,1.813e-05,0.0,0 STARLINK-3236,1 49750U 21115AC  23095.74533144  .00001813  00000-0  13195-3 0  9990,2 49750  53.2142 267.8059 0000859  76.7227 283.3861 15.08841020 75275,6917.877,95.437,540.337,539.148,0.0
49750.0,STARLINK-3236,PAYLOAD,2023-04-06 11:22:31,15.08831356,9.74e-05,53.2156,264.5359,88.0794,272.031,0.00038029,5.768e-05,0.0,0 STARLINK-3236,1 49750U 21115AC  23096.47397751  .00005768  00000-0  38029-3 0  9999,2 49750  53.2156 264.5359 0000974  88.0794 272.0310 15.08831356 75387,6917.907,95.438,540.446,539.098,0.0
49750.0,STARLINK-3236,PAYLOAD,2023-04-06 17:44:04,15.08836414,9.48e-05,53.2156,263.3463,89.8571,270.253,0.00036926,5.593e-05,0.0,0 STARLINK-3236,1 49750U 21115AC  23096.73893527  .00005593  00000-0  36926-3 0  9990,2 49750  53.2156 263.3463 0000948  89.8571 270.2530 15.08836414 74319,6917.891,95.438,540.412,539.101,0.0
49750.0,STARLINK-3236,PAYLOAD,2023-04-07 11:13:18,15.08838941,0.0001042,53.2153,260.0752,86.681,273.4301,8.7924e-05,1.112e-05,0.0,0 STARLINK-3236,1 49750U 21115AC  23097.46757288  .00001112  00000-0  87924-4 0  9992,2 49750  53.2153 260.0752 0001042  86.6810 273.4301 15.08838941 74428,6917.884,95.438,540.469,539.028,0.0
49750.0,STARLINK-3236,PAYLOAD,2023-04-07 19:10:13,15.08843231,0.0001018,53.2156,258.5884,94.6347,265.4761,0.00012507,1.703e-05,0.0,0 STARLINK-3236,1 49750U 21115AC  23097.79877038  .00001703  00000-0  12507-3 0  9994,2 49750  53.2156 258.5884 0001018  94.6347 265.4761 15.08843231 75583,6917.871,95.437,540.44,539.031,0.0
49750.0,STARLINK-3236,PAYLOAD,2023-04-08 11:04:05,15.08835613,0.0001367,53.216,255.6141,96.521,263.5938,-3.5337e-05,-8.5e-06,0.0,0 STARLINK-3236,1 49750U 21115AC  23098.46117448 -.00000850  00000-0 -35337-4 0  9992,2 49750  53.2160 255.6141 0001367  96.5210 263.5938 15.08835613 75680,6917.894,95.438,540.704,538.813,0.0
49750.0,STARLINK-3236,PAYLOAD,2023-04-09 10:54:52,15.08835163,0.0001149,53.2152,251.1524,91.2807,268.8317,-2.129e-05,-6.27e-06,0.0,0 STARLINK-3236,1 49750U 21115AC  23099.45477665 -.00000627  00000-0 -21290-4 0  9997,2 49750  53.2152 251.1524 0001149  91.2807 268.8317 15.08835163 74722,6917.895,95.438,540.555,538.965,0.0
49750.0,STARLINK-3236,PAYLOAD,2023-04-09 18:51:48,15.08844703,9.95e-05,53.2156,249.6663,98.3595,261.751,0.00010842,1.438e-05,0.0,0 STARLINK-3236,1 49750U 21115AC  23099.78597242  .00001438  00000-0  10842-3 0  9996,2 49750  53.2156 249.6663 0000995  98.3595 261.7510 15.08844703 75887,6917.866,95.437,540.419,539.043,0.0
49750.0,STARLINK-3236,PAYLOAD,2023-04-10 10:45:39,15.08838932,0.0001074,53.216,246.6926,96.721,263.3904,0.00013805,1.91e-05,0.0,0 STARLINK-3236,1 49750U 21115AC  23100.44837587  .00001910  00000-0  13805-3 0  9998,2 49750  53.2160 246.6926 0001074  96.7210 263.3904 15.08838932 75989,6917.884,95.438,540.492,539.006,0.0
49750.0,STARLINK-3236,PAYLOAD,2023-04-10 20:17:57,15.08853033,0.0001187,53.218,244.91,102.2622,257.8503,0.00026138,3.876e-05,0.0,0 STARLINK-3236,1 49750U 21115AC  23100.84580773  .00003876  00000-0  26138-3 0  9990,2 49750  53.2180 244.9100 0001187 102.2622 257.8503 15.08853033 76041,6917.841,95.437,540.527,538.884,0.0
49750.0,STARLINK-3236,PAYLOAD,2023-04-11 02:39:31,15.08833104,8.69e-05,53.2149,243.7183,91.8496,268.2595,-6.1884e-05,-1.272e-05,0.0,0 STARLINK-3236,1 49750U 21115AC  23101.11077585 -.00001272  00000-0 -61884-4 0  9991,2 49750  53.2149 243.7183 0000869  91.8496 268.2595 15.08833104 76080,6917.901,95.438,540.368,539.165,0.0
49750.0,STARLINK-3236,PAYLOAD,2023-04-11 12:11:49,15.08840014,6.88e-05,53.2149,241.9366,102.9691,257.1377,6.4602e-05,7.41e-06,0.0,0 STARLINK-3236,1 49750U 21115AC  23101.50821331  .00000741  00000-0  64602-4 0  9999,2 49750  53.2149 241.9366 0000688 102.9691 257.1377 15.08840014 75030,6917.88,95.438,540.221,539.269,0.0
49750.0,STARLINK-3236,PAYLOAD,2023-04-12 08:51:50,15.08840688,0.00017,53.218,238.0708,85.2406,274.878,3.7352e-05,3.06e-06,0.0,0 STARLINK-3236,1 49750U 21115AC  23102.36933356  .00000306  00000-0  37352-4 0  9994,2 49750  53.2180 238.0708 0001700  85.2406 274.8780 15.08840688 75160,6917.878,95.438,540.919,538.567,0.0
49750.0,STARLINK-3236,PAYLOAD,2023-04-13 08:42:37,15.0883454,0.0001099,53.2141,233.61,86.2142,273.8975,0.00014592,2.035e-05,0.0,0 STARLINK-3236,1 49750U 21115AC  23103.36293653  .00002035  00000-0  14592-3 0  9995,2 49750  53.2141 233.6100 0001099  86.2142 273.8975 15.08834540 75315,6917.897,95.438,540.522,539.002,0.0
49750.0,STARLINK-3236,PAYLOAD,2023-04-14 08:33:25,15.08838955,0.0001616,53.2156,229.152,70.1438,289.9729,0.00015809,2.229e-05,0.0,0 STARLINK-3236,1 49750U 21115AC  23104.35653991  .00002229  00000-0  15809-3 0  9997,2 49750  53.2156 229.1520 0001616  70.1438 289.9729 15.08838955 76570,6917.884,95.438,540.867,538.631,0.0
49750.0,STARLINK-3236,PAYLOAD,2023-04-14 11:44:11,15.0883892,0.0001314,53.2146,228.556,79.3507,280.7633,0.0001264,1.724e-05,0.0,0 STARLINK-3236,1 49750U 21115AC  23104.48901793  .00001724  00000-0  12640-3 0  9996,2 49750  53.2146 228.5560 0001314  79.3507 280.7633 15.08838920 75483,6917.884,95.438,540.658,538.84,0.0
49750.0,STARLINK-3236,PAYLOAD,2023-04-15 13:10:20,15.08847563,0.0001296,53.2176,223.7979,88.1853,271.9288,0.00018593,2.673e-05,0.0,0 STARLINK-3236,1 49750U 21115AC  23105.54885342  .00002673  00000-0  18593-3 0  9992,2 49750  53.2176 223.7979 0001296  88.1853 271.9288 15.08847563 76750,6917.857,95.437,540.619,538.826,0.0
49750.0,STARLINK-3236,PAYLOAD,2023-04-15 17:56:29,15.08863624,0.0001153,53.2169,222.9047,99.1024,261.0099,0.00047497,7.284e-05,0.0,0 STARLINK-3236,1 49750U 21115AC  23105.74756574  .00007284  00000-0  47497-3 0  9996,2 49750  53.2169 222.9047 0001153  99.1024 261.0099 15.08863624 76782,6917.808,95.436,540.471,538.876,0.0
49750.0,STARLINK-3236,PAYLOAD,2023-04-16 00:18:03,15.08830831,0.0001307,53.2174,221.7186,113.8052,246.3077,-0.00015414,-2.74e-05,0.0,0 STARLINK-3236,1 49750U 21115AC  23106.01253736 -.00002740  00000-0 -15414-3 0  9997,2 49750  53.2174 221.7186 0001307 113.8052 246.3077 15.08830831 76826,6917.908,95.438,540.678,538.869,0.0
49750.0,STARLINK-3236,PAYLOAD,2023-04-16 13:01:08,15.08837596,0.0001417,53.2176,219.3363,98.4816,261.6336,2.8624e-05,1.68e-06,0.0,0 STARLINK-3236,1 49750U 21115AC  23106.54245682  .00000168  00000-0  28624-4 0  9994,2 49750  53.2176 219.3363 0001417  98.4816 261.6336 15.08837596 75794,6917.888,95.438,540.733,538.772,0.0
